[{"OBJECT_NAME":"QIANFAN-69","OBJECT_ID":"2025-016Q","EPOCH":"2026-03-06T07:34:45.689376","MEAN_MOTION":13.51005392,"ECCENTRICITY":0.00179715,"INCLINATION":88.9666,"RA_OF_ASC_NODE":94.3005,"ARG_OF_PERICENTER":102.822,"MEAN_ANOMALY":257.4941,"EPHEMERIS_TYPE":0,"CLASSIFICATION_TYPE":"U","NORAD_CAT_ID":62799,"ELEMENT_SET_NO":999,"REV_AT_EPOCH":5856,"BSTAR":5.5575824e-5,"MEAN_MOTION_DOT":4.8e-7,"MEAN_MOTION_DDOT":0},{"OBJECT_NAME":"QIANFAN-70","OBJECT_ID":"2025-016R","EPOCH":"2026-03-06T06:11:45.449088","MEAN_MOTION":13.5099712,"ECCENTRICITY":0.00175738,"INCLINATION":88.9687,"RA_OF_ASC_NODE":94.4628,"ARG_OF_PERICENTER":94.5234,"MEAN_ANOMALY":265.7925,"EPHEMERIS_TYPE":0,"CLASSIFICATION_TYPE":"U","NORAD_CAT_ID":62800,"ELEMENT_SET_NO":999,"REV_AT_EPOCH":5851,"BSTAR":4.9388684e-5,"MEAN_MOTION_DOT":4.4e-7,"MEAN_MOTION_DDOT":0},{"OBJECT_NAME":"QIANFAN-71","OBJECT_ID":"2025-016S","EPOCH":"2026-03-06T06:05:45.168864","MEAN_MOTION":13.50996579,"ECCENTRICITY":0.00178593,"INCLINATION":88.9681,"RA_OF_ASC_NODE":94.4375,"ARG_OF_PERICENTER":106.1277,"MEAN_ANOMALY":254.1841,"EPHEMERIS_TYPE":0,"CLASSIFICATION_TYPE":"U","NORAD_CAT_ID":62801,"ELEMENT_SET_NO":999,"REV_AT_EPOCH":5851,"BSTAR":3.5331219e-5,"MEAN_MOTION_DOT":3.5e-7,"MEAN_MOTION_DDOT":0},{"OBJECT_NAME":"QIANFAN-72","OBJECT_ID":"2025-016T","EPOCH":"2026-03-06T06:29:28.059360","MEAN_MOTION":13.50996233,"ECCENTRICITY":0.00210689,"INCLINATION":88.9671,"RA_OF_ASC_NODE":94.4411,"ARG_OF_PERICENTER":112.755,"MEAN_ANOMALY":247.583,"EPHEMERIS_TYPE":0,"CLASSIFICATION_TYPE":"U","NORAD_CAT_ID":62802,"ELEMENT_SET_NO":999,"REV_AT_EPOCH":5850,"BSTAR":1.2792607e-5,"MEAN_MOTION_DOT":2.1e-7,"MEAN_MOTION_DDOT":0},{"OBJECT_NAME":"QIANFAN-73","OBJECT_ID":"2025-046A","EPOCH":"2026-03-06T05:21:29.192256","MEAN_MOTION":13.50998543,"ECCENTRICITY":0.00131782,"INCLINATION":88.9758,"RA_OF_ASC_NODE":311.4011,"ARG_OF_PERICENTER":240.9672,"MEAN_ANOMALY":119.0159,"EPHEMERIS_TYPE":0,"CLASSIFICATION_TYPE":"U","NORAD_CAT_ID":63159,"ELEMENT_SET_NO":999,"REV_AT_EPOCH":5868,"BSTAR":0.00025679264,"MEAN_MOTION_DOT":1.78e-6,"MEAN_MOTION_DDOT":0},{"OBJECT_NAME":"QIANFAN-74","OBJECT_ID":"2025-046B","EPOCH":"2026-03-06T06:44:31.273728","MEAN_MOTION":13.50998508,"ECCENTRICITY":0.00019016,"INCLINATION":88.9758,"RA_OF_ASC_NODE":311.284,"ARG_OF_PERICENTER":78.5453,"MEAN_ANOMALY":281.5912,"EPHEMERIS_TYPE":0,"CLASSIFICATION_TYPE":"U","NORAD_CAT_ID":63160,"ELEMENT_SET_NO":999,"REV_AT_EPOCH":5875,"BSTAR":0.0002881189,"MEAN_MOTION_DOT":1.98e-6,"MEAN_MOTION_DDOT":0},{"OBJECT_NAME":"QIANFAN-75","OBJECT_ID":"2025-046C","EPOCH":"2026-03-06T06:25:59.983104","MEAN_MOTION":13.50998142,"ECCENTRICITY":0.00143469,"INCLINATION":88.9761,"RA_OF_ASC_NODE":311.5202,"ARG_OF_PERICENTER":244.436,"MEAN_ANOMALY":115.5309,"EPHEMERIS_TYPE":0,"CLASSIFICATION_TYPE":"U","NORAD_CAT_ID":63161,"ELEMENT_SET_NO":999,"REV_AT_EPOCH":5862,"BSTAR":0.00010245032,"MEAN_MOTION_DOT":7.8e-7,"MEAN_MOTION_DDOT":0},{"OBJECT_NAME":"QIANFAN-76","OBJECT_ID":"2025-046D","EPOCH":"2026-03-06T01:00:44.822016","MEAN_MOTION":13.51014427,"ECCENTRICITY":0.00118768,"INCLINATION":88.976,"RA_OF_ASC_NODE":311.5234,"ARG_OF_PERICENTER":245.9495,"MEAN_ANOMALY":114.0413,"EPHEMERIS_TYPE":0,"CLASSIFICATION_TYPE":"U","NORAD_CAT_ID":63162,"ELEMENT_SET_NO":999,"REV_AT_EPOCH":5860,"BSTAR":0.00021912783,"MEAN_MOTION_DOT":1.53e-6,"MEAN_MOTION_DDOT":0},{"OBJECT_NAME":"QIANFAN-77","OBJECT_ID":"2025-046E","EPOCH":"2026-03-06T06:05:44.105280","MEAN_MOTION":13.96175171,"ECCENTRICITY":0.00145421,"INCLINATION":88.9755,"RA_OF_ASC_NODE":308.8222,"ARG_OF_PERICENTER":172.3691,"MEAN_ANOMALY":187.771,"EPHEMERIS_TYPE":0,"CLASSIFICATION_TYPE":"U","NORAD_CAT_ID":63163,"ELEMENT_SET_NO":999,"REV_AT_EPOCH":6010,"BSTAR":0.00031099545,"MEAN_MOTION_DOT":4.41e-6,"MEAN_MOTION_DDOT":0},{"OBJECT_NAME":"QIANFAN-78","OBJECT_ID":"2025-046F","EPOCH":"2026-03-06T05:33:20.541600","MEAN_MOTION":13.50998839,"ECCENTRICITY":0.00132094,"INCLINATION":88.9758,"RA_OF_ASC_NODE":311.3671,"ARG_OF_PERICENTER":248.0966,"MEAN_ANOMALY":111.8782,"EPHEMERIS_TYPE":0,"CLASSIFICATION_TYPE":"U","NORAD_CAT_ID":63164,"ELEMENT_SET_NO":999,"REV_AT_EPOCH":5870,"BSTAR":0.00031679774,"MEAN_MOTION_DOT":2.17e-6,"MEAN_MOTION_DDOT":0},{"OBJECT_NAME":"QIANFAN-79","OBJECT_ID":"2025-046G","EPOCH":"2026-03-06T06:15:00.765792","MEAN_MOTION":13.51008999,"ECCENTRICITY":0.00130647,"INCLINATION":88.9763,"RA_OF_ASC_NODE":311.4749,"ARG_OF_PERICENTER":246.1736,"MEAN_ANOMALY":113.8046,"EPHEMERIS_TYPE":0,"CLASSIFICATION_TYPE":"U","NORAD_CAT_ID":63165,"ELEMENT_SET_NO":999,"REV_AT_EPOCH":5865,"BSTAR":0.00030970747,"MEAN_MOTION_DOT":2.12e-6,"MEAN_MOTION_DDOT":0},{"OBJECT_NAME":"QIANFAN-80","OBJECT_ID":"2025-046H","EPOCH":"2026-03-06T04:51:50.207616","MEAN_MOTION":13.50998442,"ECCENTRICITY":0.00118878,"INCLINATION":88.9759,"RA_OF_ASC_NODE":311.1855,"ARG_OF_PERICENTER":251.0718,"MEAN_ANOMALY":108.9145,"EPHEMERIS_TYPE":0,"CLASSIFICATION_TYPE":"U","NORAD_CAT_ID":63166,"ELEMENT_SET_NO":999,"REV_AT_EPOCH":5880,"BSTAR":0.00024314676,"MEAN_MOTION_DOT":1.69e-6,"MEAN_MOTION_DDOT":0},{"OBJECT_NAME":"QIANFAN-81","OBJECT_ID":"2025-046J","EPOCH":"2026-03-06T06:07:02.334432","MEAN_MOTION":13.5098438,"ECCENTRICITY":0.00129991,"INCLINATION":88.9759,"RA_OF_ASC_NODE":311.2479,"ARG_OF_PERICENTER":238.5359,"MEAN_ANOMALY":121.4522,"EPHEMERIS_TYPE":0,"CLASSIFICATION_TYPE":"U","NORAD_CAT_ID":63167,"ELEMENT_SET_NO":999,"REV_AT_EPOCH":5876,"BSTAR":0.00027195342,"MEAN_MOTION_DOT":1.88e-6,"MEAN_MOTION_DDOT":0},{"OBJECT_NAME":"QIANFAN-82","OBJECT_ID":"2025-046K","EPOCH":"2026-03-06T05:09:40.345920","MEAN_MOTION":13.50999803,"ECCENTRICITY":0.0011027,"INCLINATION":88.9759,"RA_OF_ASC_NODE":311.296,"ARG_OF_PERICENTER":246.5671,"MEAN_ANOMALY":113.4321,"EPHEMERIS_TYPE":0,"CLASSIFICATION_TYPE":"U","NORAD_CAT_ID":63168,"ELEMENT_SET_NO":999,"REV_AT_EPOCH":5874,"BSTAR":0.00026250747,"MEAN_MOTION_DOT":1.81e-6,"MEAN_MOTION_DDOT":0},{"OBJECT_NAME":"QIANFAN-83","OBJECT_ID":"2025-046L","EPOCH":"2026-03-06T05:30:17.246592","MEAN_MOTION":13.62021521,"ECCENTRICITY":0.00125349,"INCLINATION":88.9759,"RA_OF_ASC_NODE":310.9069,"ARG_OF_PERICENTER":224.2497,"MEAN_ANOMALY":135.7659,"EPHEMERIS_TYPE":0,"CLASSIFICATION_TYPE":"U","NORAD_CAT_ID":63169,"ELEMENT_SET_NO":999,"REV_AT_EPOCH":5896,"BSTAR":0.00036005471,"MEAN_MOTION_DOT":2.9e-6,"MEAN_MOTION_DDOT":0},{"OBJECT_NAME":"QIANFAN-84","OBJECT_ID":"2025-046M","EPOCH":"2026-03-06T05:49:46.127136","MEAN_MOTION":13.50962121,"ECCENTRICITY":0.00139786,"INCLINATION":88.9759,"RA_OF_ASC_NODE":311.4255,"ARG_OF_PERICENTER":242.7964,"MEAN_ANOMALY":117.1763,"EPHEMERIS_TYPE":0,"CLASSIFICATION_TYPE":"U","NORAD_CAT_ID":63170,"ELEMENT_SET_NO":999,"REV_AT_EPOCH":5867,"BSTAR":0.00029893469,"MEAN_MOTION_DOT":2.05e-6,"MEAN_MOTION_DDOT":0},{"OBJECT_NAME":"QIANFAN-85","OBJECT_ID":"2025-046N","EPOCH":"2026-03-06T05:45:11.558304","MEAN_MOTION":13.51002583,"ECCENTRICITY":0.00114465,"INCLINATION":88.9758,"RA_OF_ASC_NODE":311.2973,"ARG_OF_PERICENTER":245.1631,"MEAN_ANOMALY":114.8331,"EPHEMERIS_TYPE":0,"CLASSIFICATION_TYPE":"U","NORAD_CAT_ID":63171,"ELEMENT_SET_NO":999,"REV_AT_EPOCH":5874,"BSTAR":0.00027096401,"MEAN_MOTION_DOT":1.87e-6,"MEAN_MOTION_DDOT":0}]
