QIANFAN-69              
1 62799U 25016Q   26065.31580659  .00000048  00000+0  55576-4 0  9996
2 62799  88.9666  94.3005 0017971 102.8220 257.4941 13.51005392 58564
QIANFAN-70              
1 62800U 25016R   26065.25816492  .00000044  00000+0  49389-4 0  9990
2 62800  88.9687  94.4628 0017573  94.5234 265.7925 13.50997120 58519
QIANFAN-71              
1 62801U 25016S   26065.25399501  .00000035  00000+0  35331-4 0  9990
2 62801  88.9681  94.4375 0017859 106.1277 254.1841 13.50996579 58513
QIANFAN-72              
1 62802U 25016T   26065.27046365  .00000021  00000+0  12793-4 0  9992
2 62802  88.9671  94.4411 0021068 112.7550 247.5830 13.50996233 58508
QIANFAN-73              
1 63159U 25046A   26065.22325454  .00000178  00000+0  25679-3 0  9994
2 63159  88.9758 311.4011 0013178 240.9672 119.0159 13.50998543 58682
QIANFAN-74              
1 63160U 25046B   26065.28091752  .00000198  00000+0  28812-3 0  9997
2 63160  88.9758 311.2840 0001901  78.5453 281.5912 13.50998508 58756
QIANFAN-75              
1 63161U 25046C   26065.26805536  .00000078  00000+0  10245-3 0  9997
2 63161  88.9761 311.5202 0014346 244.4360 115.5309 13.50998142 58620
QIANFAN-76              
1 63162U 25046D   26065.04218544  .00000153  00000+0  21913-3 0  9999
2 63162  88.9760 311.5234 0011876 245.9495 114.0413 13.51014427 58609
QIANFAN-77              
1 63163U 25046E   26065.25398270  .00000441  00000+0  31100-3 0  9997
2 63163  88.9755 308.8222 0014542 172.3691 187.7710 13.96175171 60102
QIANFAN-78              
1 63164U 25046F   26065.23148775  .00000217  00000+0  31680-3 0  9993
2 63164  88.9758 311.3671 0013209 248.0966 111.8782 13.50998839 58702
QIANFAN-79              
1 63165U 25046G   26065.26042553  .00000212  00000+0  30971-3 0  9991
2 63165  88.9763 311.4749 0013064 246.1736 113.8046 13.51008999 58658
QIANFAN-80              
1 63166U 25046H   26065.20266444  .00000169  00000+0  24315-3 0  9999
2 63166  88.9759 311.1855 0011887 251.0718 108.9145 13.50998442 58807
QIANFAN-81              
1 63167U 25046J   26065.25488813  .00000188  00000+0  27195-3 0  9991
2 63167  88.9759 311.2479 0012999 238.5359 121.4522 13.50984380 58767
QIANFAN-82              
1 63168U 25046K   26065.21505030  .00000181  00000+0  26251-3 0  9994
2 63168  88.9759 311.2960 0011027 246.5671 113.4321 13.50999803 58742
QIANFAN-83              
1 63169U 25046L   26065.22936628  .00000290  00000+0  36005-3 0  9996
2 63169  88.9759 310.9069 0012534 224.2497 135.7659 13.62021521 58963
QIANFAN-84              
1 63170U 25046M   26065.24289499  .00000205  00000+0  29893-3 0  9990
2 63170  88.9759 311.4255 0013978 242.7964 117.1763 13.50962121 58670
QIANFAN-85              
1 63171U 25046N   26065.23971711  .00000187  00000+0  27096-3 0  9997
2 63171  88.9758 311.2973 0011446 245.1631 114.8331 13.51002583 58742
